ONEWEB-0566             
1 56061U 23043R   25303.23303212  .00000183  00000+0  41166-3 0  9991
2 56061  87.9168 289.8529 0002161  94.8788 265.2592 13.21825656127859
ONEWEB-0568             
1 56062U 23043S   25302.96814549 -.00000185  00000+0 -51812-3 0  9994
2 56062  87.8993 274.6241 0001860  75.0343 285.0994 13.16593889128683
ONEWEB-0574             
1 56063U 23043T   25303.22642931  .00000202  00000+0  45816-3 0  9994
2 56063  87.9170 289.8427 0001702  87.7349 272.3980 13.21827190127894
ONEWEB-0575             
1 56064U 23043U   25303.18978895  .00000056  00000+0  11345-3 0  9998
2 56064  87.8989 274.5819 0001507  76.9603 283.1696 13.16595557128702
ONEWEB-0576             
1 56065U 23043V   25303.17080978  .00000079  00000+0  17254-3 0  9994
2 56065  87.8995 274.5844 0001823  77.9024 282.2312 13.16594650128693
ONEWEB-0577             
1 56066U 23043W   25303.17714154 -.00000062  00000+0 -19462-3 0  9992
2 56066  87.8994 274.5833 0001226  74.1523 285.9743 13.16594159128727
ONEWEB-0578             
1 56067U 23043X   25302.98617839  .00000085  00000+0  17317-3 0  9993
2 56067  87.9170 289.9000 0001912  79.2717 280.8632 13.21823711127820
ONEWEB-0579             
1 56068U 23043Y   25303.20338911  .00000140  00000+0  30783-3 0  9995
2 56068  87.9173 289.8435 0001975  95.7319 264.4040 13.21823707127865
ONEWEB-0581             
1 56069U 23043Z   25303.18346724 -.00000078  00000+0 -23879-3 0  9994
2 56069  87.8990 274.5969 0001442  88.4880 271.6416 13.16594548128697
ONEWEB-0609             
1 56070U 23043AA  25303.03427705 -.00000114  00000+0 -33803-3 0  9998
2 56070  87.8967 305.1478 0001938  90.6156 269.5196 13.15549557126171
ONEWEB-0613             
1 56071U 23043AB  25303.25768957 -.00000042  00000+0 -14444-3 0  9990
2 56071  87.8963 305.1166 0002033  97.0944 263.0417 13.15547175126208
ONEWEB-0630             
1 56072U 23043AC  25303.25295623 -.00000052  00000+0 -17279-3 0  9996
2 56072  87.8963 305.0896 0002037  98.4175 261.7186 13.15548786126198
ONEWEB-0632             
1 56073U 23043AD  25303.02002971  .00000027  00000+0  36714-4 0  9990
2 56073  87.8961 305.1553 0001697  95.0815 265.0509 13.15549372126168
ONEWEB-0633             
1 56074U 23043AE  25303.24185974  .00000154  00000+0  37396-3 0  9997
2 56074  87.8961 305.0743 0002248  96.7372 263.4014 13.15549364126173
ONEWEB-0634             
1 56075U 23043AF  25303.30366019  .00000188  00000+0  46639-3 0  9993
2 56075  87.8965 305.1090 0002107  84.3452 275.7919 13.15548846126174
ONEWEB-0635             
1 56076U 23043AG  25303.29889897  .00000196  00000+0  48605-3 0  9990
2 56076  87.8957 305.0663 0001636  95.0739 265.0578 13.15547209126203
