[{"OBJECT_NAME":"ONEWEB-0566","OBJECT_ID":"2023-043R","EPOCH":"2025-10-30T05:35:33.975168","MEAN_MOTION":13.21825656,"ECCENTRICITY":0.00021614,"INCLINATION":87.9168,"RA_OF_ASC_NODE":289.8529,"ARG_OF_PERICENTER":94.8788,"MEAN_ANOMALY":265.2592,"EPHEMERIS_TYPE":0,"CLASSIFICATION_TYPE":"U","NORAD_CAT_ID":56061,"ELEMENT_SET_NO":999,"REV_AT_EPOCH":12785,"BSTAR":0.00041165641,"MEAN_MOTION_DOT":1.83e-6,"MEAN_MOTION_DDOT":0},{"OBJECT_NAME":"ONEWEB-0568","OBJECT_ID":"2023-043S","EPOCH":"2025-10-29T23:14:07.770336","MEAN_MOTION":13.16593889,"ECCENTRICITY":0.00018604,"INCLINATION":87.8993,"RA_OF_ASC_NODE":274.6241,"ARG_OF_PERICENTER":75.0343,"MEAN_ANOMALY":285.0994,"EPHEMERIS_TYPE":0,"CLASSIFICATION_TYPE":"U","NORAD_CAT_ID":56062,"ELEMENT_SET_NO":999,"REV_AT_EPOCH":12868,"BSTAR":-0.00051811992,"MEAN_MOTION_DOT":-1.85e-6,"MEAN_MOTION_DDOT":0},{"OBJECT_NAME":"ONEWEB-0574","OBJECT_ID":"2023-043T","EPOCH":"2025-10-30T05:26:03.492384","MEAN_MOTION":13.2182719,"ECCENTRICITY":0.00017026,"INCLINATION":87.917,"RA_OF_ASC_NODE":289.8427,"ARG_OF_PERICENTER":87.7349,"MEAN_ANOMALY":272.398,"EPHEMERIS_TYPE":0,"CLASSIFICATION_TYPE":"U","NORAD_CAT_ID":56063,"ELEMENT_SET_NO":999,"REV_AT_EPOCH":12789,"BSTAR":0.00045816099,"MEAN_MOTION_DOT":2.02e-6,"MEAN_MOTION_DDOT":0},{"OBJECT_NAME":"ONEWEB-0575","OBJECT_ID":"2023-043U","EPOCH":"2025-10-30T04:33:17.765280","MEAN_MOTION":13.16595557,"ECCENTRICITY":0.00015071,"INCLINATION":87.8989,"RA_OF_ASC_NODE":274.5819,"ARG_OF_PERICENTER":76.9603,"MEAN_ANOMALY":283.1696,"EPHEMERIS_TYPE":0,"CLASSIFICATION_TYPE":"U","NORAD_CAT_ID":56064,"ELEMENT_SET_NO":999,"REV_AT_EPOCH":12870,"BSTAR":0.00011345496,"MEAN_MOTION_DOT":5.6e-7,"MEAN_MOTION_DDOT":0},{"OBJECT_NAME":"ONEWEB-0576","OBJECT_ID":"2023-043V","EPOCH":"2025-10-30T04:05:57.964992","MEAN_MOTION":13.1659465,"ECCENTRICITY":0.00018233,"INCLINATION":87.8995,"RA_OF_ASC_NODE":274.5844,"ARG_OF_PERICENTER":77.9024,"MEAN_ANOMALY":282.2312,"EPHEMERIS_TYPE":0,"CLASSIFICATION_TYPE":"U","NORAD_CAT_ID":56065,"ELEMENT_SET_NO":999,"REV_AT_EPOCH":12869,"BSTAR":0.00017254302,"MEAN_MOTION_DOT":7.9e-7,"MEAN_MOTION_DDOT":0},{"OBJECT_NAME":"ONEWEB-0577","OBJECT_ID":"2023-043W","EPOCH":"2025-10-30T04:15:05.029056","MEAN_MOTION":13.16594159,"ECCENTRICITY":0.00012265,"INCLINATION":87.8994,"RA_OF_ASC_NODE":274.5833,"ARG_OF_PERICENTER":74.1523,"MEAN_ANOMALY":285.9743,"EPHEMERIS_TYPE":0,"CLASSIFICATION_TYPE":"U","NORAD_CAT_ID":56066,"ELEMENT_SET_NO":999,"REV_AT_EPOCH":12872,"BSTAR":-0.00019462483,"MEAN_MOTION_DOT":-6.2e-7,"MEAN_MOTION_DDOT":0},{"OBJECT_NAME":"ONEWEB-0578","OBJECT_ID":"2023-043X","EPOCH":"2025-10-29T23:40:05.812896","MEAN_MOTION":13.21823711,"ECCENTRICITY":0.00019123,"INCLINATION":87.917,"RA_OF_ASC_NODE":289.9,"ARG_OF_PERICENTER":79.2717,"MEAN_ANOMALY":280.8632,"EPHEMERIS_TYPE":0,"CLASSIFICATION_TYPE":"U","NORAD_CAT_ID":56067,"ELEMENT_SET_NO":999,"REV_AT_EPOCH":12782,"BSTAR":0.00017317256,"MEAN_MOTION_DOT":8.5e-7,"MEAN_MOTION_DDOT":0},{"OBJECT_NAME":"ONEWEB-0579","OBJECT_ID":"2023-043Y","EPOCH":"2025-10-30T04:52:52.819104","MEAN_MOTION":13.21823707,"ECCENTRICITY":0.00019757,"INCLINATION":87.9173,"RA_OF_ASC_NODE":289.8435,"ARG_OF_PERICENTER":95.7319,"MEAN_ANOMALY":264.404,"EPHEMERIS_TYPE":0,"CLASSIFICATION_TYPE":"U","NORAD_CAT_ID":56068,"ELEMENT_SET_NO":999,"REV_AT_EPOCH":12786,"BSTAR":0.00030783392,"MEAN_MOTION_DOT":1.4e-6,"MEAN_MOTION_DDOT":0},{"OBJECT_NAME":"ONEWEB-0581","OBJECT_ID":"2023-043Z","EPOCH":"2025-10-30T04:24:11.569536","MEAN_MOTION":13.16594548,"ECCENTRICITY":0.00014421,"INCLINATION":87.899,"RA_OF_ASC_NODE":274.5969,"ARG_OF_PERICENTER":88.488,"MEAN_ANOMALY":271.6416,"EPHEMERIS_TYPE":0,"CLASSIFICATION_TYPE":"U","NORAD_CAT_ID":56069,"ELEMENT_SET_NO":999,"REV_AT_EPOCH":12869,"BSTAR":-0.0002387907,"MEAN_MOTION_DOT":-7.8e-7,"MEAN_MOTION_DDOT":0},{"OBJECT_NAME":"ONEWEB-0609","OBJECT_ID":"2023-043AA","EPOCH":"2025-10-30T00:49:21.537120","MEAN_MOTION":13.15549557,"ECCENTRICITY":0.0001938,"INCLINATION":87.8967,"RA_OF_ASC_NODE":305.1478,"ARG_OF_PERICENTER":90.6156,"MEAN_ANOMALY":269.5196,"EPHEMERIS_TYPE":0,"CLASSIFICATION_TYPE":"U","NORAD_CAT_ID":56070,"ELEMENT_SET_NO":999,"REV_AT_EPOCH":12617,"BSTAR":-0.00033803214,"MEAN_MOTION_DOT":-1.14e-6,"MEAN_MOTION_DDOT":0},{"OBJECT_NAME":"ONEWEB-0613","OBJECT_ID":"2023-043AB","EPOCH":"2025-10-30T06:11:04.378848","MEAN_MOTION":13.15547175,"ECCENTRICITY":0.00020336,"INCLINATION":87.8963,"RA_OF_ASC_NODE":305.1166,"ARG_OF_PERICENTER":97.0944,"MEAN_ANOMALY":263.0417,"EPHEMERIS_TYPE":0,"CLASSIFICATION_TYPE":"U","NORAD_CAT_ID":56071,"ELEMENT_SET_NO":999,"REV_AT_EPOCH":12620,"BSTAR":-0.00014444025,"MEAN_MOTION_DOT":-4.2e-7,"MEAN_MOTION_DDOT":0},{"OBJECT_NAME":"ONEWEB-0630","OBJECT_ID":"2023-043AC","EPOCH":"2025-10-30T06:04:15.418272","MEAN_MOTION":13.15548786,"ECCENTRICITY":0.00020374,"INCLINATION":87.8963,"RA_OF_ASC_NODE":305.0896,"ARG_OF_PERICENTER":98.4175,"MEAN_ANOMALY":261.7186,"EPHEMERIS_TYPE":0,"CLASSIFICATION_TYPE":"U","NORAD_CAT_ID":56072,"ELEMENT_SET_NO":999,"REV_AT_EPOCH":12619,"BSTAR":-0.0001727903,"MEAN_MOTION_DOT":-5.2e-7,"MEAN_MOTION_DDOT":0},{"OBJECT_NAME":"ONEWEB-0632","OBJECT_ID":"2023-043AD","EPOCH":"2025-10-30T00:28:50.566944","MEAN_MOTION":13.15549372,"ECCENTRICITY":0.00016972,"INCLINATION":87.8961,"RA_OF_ASC_NODE":305.1553,"ARG_OF_PERICENTER":95.0815,"MEAN_ANOMALY":265.0509,"EPHEMERIS_TYPE":0,"CLASSIFICATION_TYPE":"U","NORAD_CAT_ID":56073,"ELEMENT_SET_NO":999,"REV_AT_EPOCH":12616,"BSTAR":3.6714236e-5,"MEAN_MOTION_DOT":2.7e-7,"MEAN_MOTION_DDOT":0},{"OBJECT_NAME":"ONEWEB-0633","OBJECT_ID":"2023-043AE","EPOCH":"2025-10-30T05:48:16.681536","MEAN_MOTION":13.15549364,"ECCENTRICITY":0.00022484,"INCLINATION":87.8961,"RA_OF_ASC_NODE":305.0743,"ARG_OF_PERICENTER":96.7372,"MEAN_ANOMALY":263.4014,"EPHEMERIS_TYPE":0,"CLASSIFICATION_TYPE":"U","NORAD_CAT_ID":56074,"ELEMENT_SET_NO":999,"REV_AT_EPOCH":12617,"BSTAR":0.00037396327,"MEAN_MOTION_DOT":1.54e-6,"MEAN_MOTION_DDOT":0},{"OBJECT_NAME":"ONEWEB-0634","OBJECT_ID":"2023-043AF","EPOCH":"2025-10-30T07:17:16.240416","MEAN_MOTION":13.15548846,"ECCENTRICITY":0.00021072,"INCLINATION":87.8965,"RA_OF_ASC_NODE":305.109,"ARG_OF_PERICENTER":84.3452,"MEAN_ANOMALY":275.7919,"EPHEMERIS_TYPE":0,"CLASSIFICATION_TYPE":"U","NORAD_CAT_ID":56075,"ELEMENT_SET_NO":999,"REV_AT_EPOCH":12617,"BSTAR":0.00046638848,"MEAN_MOTION_DOT":1.88e-6,"MEAN_MOTION_DDOT":0},{"OBJECT_NAME":"ONEWEB-0635","OBJECT_ID":"2023-043AG","EPOCH":"2025-10-30T07:10:24.871008","MEAN_MOTION":13.15547209,"ECCENTRICITY":0.00016361,"INCLINATION":87.8957,"RA_OF_ASC_NODE":305.0663,"ARG_OF_PERICENTER":95.0739,"MEAN_ANOMALY":265.0578,"EPHEMERIS_TYPE":0,"CLASSIFICATION_TYPE":"U","NORAD_CAT_ID":56076,"ELEMENT_SET_NO":999,"REV_AT_EPOCH":12620,"BSTAR":0.00048605192,"MEAN_MOTION_DOT":1.96e-6,"MEAN_MOTION_DDOT":0}]
